     2.11           N: GPS NAV DATA                         RINEX VERSION / TYPE
teqc  2016Apr1      IGN                 20230718 01:12:03UTCPGM / RUN BY / DATE
    18                                                      LEAP SECONDS
    1.5832D-08  2.2352D-08 -1.1921D-07 -1.1921D-07          ION ALPHA
    1.2083D+05  1.6384D+05 -1.3107D+05 -3.9322D+05          ION BETA
   -5.587935447693D-09-9.769962616701D-15   233472     2271 DELTA-UTC: A0,A1,T,W
                                                            END OF HEADER
 6 23  7 17  8  0  0.0 5.771280266345D-04-3.637978807092D-12 0.000000000000D+00
    6.200000000000D+01 3.418750000000D+01 4.033739450011D-09-1.312397634949D+00
    1.871958374977D-06 2.693636924960D-03 4.768371582031D-07 5.153702669144D+03
    1.152000000000D+05 5.587935447693D-09 1.385422931557D+00 1.490116119385D-08
    9.890717143727D-01 3.856562500000D+02-7.594448994827D-01-8.108909197188D-09
   -1.428630936784D-12 1.000000000000D+00 2.271000000000D+03 0.000000000000D+00
    2.000000000000D+00 0.000000000000D+00 3.725290298462D-09 6.200000000000D+01
    1.080180000000D+05 4.000000000000D+00
19 23  7 17  8  0  0.0 3.450019285083D-04 5.115907697473D-12 0.000000000000D+00
    7.000000000000D+01 1.309062500000D+02 4.045525692220D-09 2.783031283144D+00
    6.904825568199D-06 9.501073393039D-03 7.785856723785D-06 5.153641103745D+03
    1.152000000000D+05 6.891787052155D-08 4.345227553426D-01 2.291053533554D-07
    9.729320048318D-01 2.363437500000D+02 2.357894241542D+00-7.681034475127D-09
   -6.321691781164D-11 1.000000000000D+00 2.271000000000D+03 0.000000000000D+00
    2.000000000000D+00 0.000000000000D+00-1.536682248116D-08 7.000000000000D+01
    1.079400000000D+05
17 23  7 17  8  0  0.0 7.211086340249D-04 6.821210263297D-13 0.000000000000D+00
    1.800000000000D+01 1.075937500000D+02 4.073741116241D-09 6.131674179127D-01
    5.638226866722D-06 1.359544275329D-02 8.454546332359D-06 5.153554241180D+03
    1.152000000000D+05-1.788139343262D-07 3.900429242477D-01-9.313225746155D-08
    9.738705062785D-01 2.294062500000D+02-1.407879584270D+00-8.004976296537D-09
   -9.750406143553D-11 1.000000000000D+00 2.271000000000D+03 0.000000000000D+00
    2.000000000000D+00 0.000000000000D+00-1.117587089539D-08 1.800000000000D+01
    1.083720000000D+05 4.000000000000D+00
11 23  7 17  9 29 36.0-2.796556800604D-04-1.625721779419D-11 0.000000000000D+00
    2.010000000000D+02 3.159375000000D+01 4.619121085625D-09 8.846474573918D-01
    1.726672053337D-06 9.353928035125D-04 6.519258022308D-08 5.153566619873D+03
    1.205760000000D+05 4.656612873077D-08 1.425569676836D+00 9.313225746155D-09
    9.653242851512D-01 3.797812500000D+02-2.851868962121D+00-8.395707240538D-09
   -8.964658876343D-11 1.000000000000D+00 2.271000000000D+03 0.000000000000D+00
    2.000000000000D+00 0.000000000000D+00-8.847564458847D-09 9.690000000000D+02
    1.133100000000D+05
16 23  7 17  9 59 44.0-4.797694273293D-04 4.433786671143D-12 0.000000000000D+00
    4.000000000000D+00 6.875000000000D+00 4.461614633300D-09 2.665519161229D+00
    2.793967723846D-07 1.329867530148D-02 9.339302778244D-06 5.153626367569D+03
    1.223840000000D+05-4.470348358154D-08-6.305596574322D-01-2.365559339523D-07
    9.646471135386D-01 2.020000000000D+02 7.907269097954D-01-7.506741006580D-09
   -5.164501049038D-10 1.000000000000D+00 2.271000000000D+03 0.000000000000D+00
    2.000000000000D+00 0.000000000000D+00-1.024454832077D-08 4.000000000000D+00
    1.175700000000D+05
32 23  7 17  9 59 44.0-5.227997899055D-04-7.617018127348D-12 0.000000000000D+00
    0.000000000000D+00-5.012500000000D+01 4.071955217455D-09 2.354113737921D+00
   -2.464279532433D-06 6.945993285626D-03 1.073069870472D-05 5.153770984650D+03
    1.223840000000D+05-1.303851604462D-08-2.822395137572D+00-1.341104507446D-07
    9.603396009934D-01 1.694687500000D+02-2.202852624031D+00-7.571387072858D-09
    5.950248072040D-10 1.000000000000D+00 2.271000000000D+03 0.000000000000D+00
    2.000000000000D+00 0.000000000000D+00 4.656612873077D-10 0.000000000000D+00
    1.180800000000D+05
31 23  7 17  9 59 44.0-2.202084288001D-04-6.821210263297D-13 0.000000000000D+00
    1.200000000000D+01 4.593750000000D+00 4.996279390213D-09-2.002751946177D+00
   -1.322478055954D-07 1.033114211168D-02 4.993751645088D-06 5.153583093643D+03
    1.223840000000D+05 7.450580596924D-08-1.743732835163D+00-1.229345798492D-07
    9.539282908280D-01 2.760937500000D+02 5.527671101803D-01-8.000690776555D-09
    4.318037039042D-10 1.000000000000D+00 2.271000000000D+03 0.000000000000D+00
    2.000000000000D+00 0.000000000000D+00-1.350417733192D-08 1.200000000000D+01
    1.152600000000D+05
30 23  7 17  9 59 44.0-5.036499351263D-04 2.842170943040D-12 0.000000000000D+00
    6.000000000000D+00 1.137500000000D+01 5.422725878299D-09-1.199243692285D+00
    6.295740604401D-07 6.588781368919D-03 4.662200808525D-06 5.153783664703D+03
    1.223840000000D+05 1.192092895508D-07-1.758616522740D+00 3.725290298462D-09
    9.349930662599D-01 2.700937500000D+02-2.547424293213D+00-8.377848971038D-09
    4.007309777680D-10 1.000000000000D+00 2.271000000000D+03 0.000000000000D+00
    2.000000000000D+00 0.000000000000D+00 3.725290298462D-09 6.000000000000D+00
    1.152180000000D+05 4.000000000000D+00
29 23  7 17  9 59 44.0-6.057005375624D-04-9.094947017729D-13 0.000000000000D+00
    7.000000000000D+00 1.275000000000D+02 4.056597544999D-09 1.722568780293D+00
    6.670132279396D-06 2.636274788529D-03 7.677823305130D-06 5.153745433807D+03
    1.223840000000D+05 4.842877388000D-08 4.041856833161D-01-6.891787052155D-08
    9.761437010347D-01 2.350937500000D+02 2.477831891873D+00-7.753180093929D-09
   -6.000249934494D-11 1.000000000000D+00 2.271000000000D+03 0.000000000000D+00
    2.000000000000D+00 0.000000000000D+00-1.024454832077D-08 7.000000000000D+00
    1.152180000000D+05 4.000000000000D+00
 5 23  7 17  9 59 44.0-1.352173276246D-04-1.477928890381D-12 0.000000000000D+00
    3.000000000000D+00-1.267812500000D+02 4.185174329310D-09 2.109911102175D+00
   -6.794929504395D-06 6.067747250199D-03 4.800036549568D-06 5.153705400467D+03
    1.223840000000D+05 4.284083843231D-08 2.377024917818D+00-1.080334186554D-07
    9.668782713438D-01 2.913750000000D+02 1.182901071618D+00-7.979618097409D-09
   -3.028697585983D-10 1.000000000000D+00 2.271000000000D+03 0.000000000000D+00
    2.000000000000D+00 0.000000000000D+00-1.117587089539D-08 3.000000000000D+00
    1.177260000000D+05 4.000000000000D+00
22 23  7 17  9 59 44.0 5.139759741724D-04 5.456968210638D-12 0.000000000000D+00
    5.000000000000D+00-4.106250000000D+01 4.110171205129D-09 1.563097754050D+00
   -2.155080437660D-06 1.437107019592D-02 1.016445457935D-05 5.153657835007D+03
    1.223840000000D+05-2.067536115646D-07-2.730204091228D+00-2.998858690262D-07
    9.631819864530D-01 1.841250000000D+02-1.797993685334D+00-7.721393055585D-09
    6.235974039064D-10 1.000000000000D+00 2.271000000000D+03 0.000000000000D+00
    2.000000000000D+00 6.300000000000D+01-8.381903171539D-09 5.000000000000D+00
    1.152180000000D+05 4.000000000000D+00
27 23  7 17  9 59 44.0-4.786998033524D-06-7.617018127348D-12 0.000000000000D+00
    0.000000000000D+00 1.318125000000D+02 4.276963672112D-09 1.761968111947D+00
    6.757676601410D-06 1.154256309383D-02 9.382143616676D-06 5.153674551010D+03
    1.223840000000D+05-3.315508365631D-07 3.239615306867D-01 5.029141902924D-08
    9.671926904749D-01 2.028750000000D+02 7.435747779484D-01-7.846041150117D-09
   -4.143029669335D-11 1.000000000000D+00 2.271000000000D+03 0.000000000000D+00
    2.000000000000D+00 0.000000000000D+00 1.862645149231D-09 0.000000000000D+00
    1.216200000000D+05
10 23  7 17 10  0  0.0-4.550069570541D-05-1.477928890381D-12 0.000000000000D+00
    1.000000000000D+01-1.396562500000D+02 3.757299360529D-09-2.546846793135D+00
   -7.143244147301D-06 8.592109312303D-03 5.545094609261D-06 5.153693292618D+03
    1.224000000000D+05-1.303851604462D-08 2.421627047401D+00-4.470348358154D-08
    9.796148750173D-01 2.813750000000D+02-2.438710252791D+00-7.672105617473D-09
   -2.135803200964D-10 1.000000000000D+00 2.271000000000D+03 0.000000000000D+00
    2.000000000000D+00 0.000000000000D+00 2.328306436539D-09 1.000000000000D+01
    1.152300000000D+05
 8 23  7 17 10  0  0.0-1.326170749962D-04-1.932676241267D-12 0.000000000000D+00
    1.100000000000D+02 1.209062500000D+02 4.439827616665D-09 1.721927293641D+00
    6.502494215965D-06 8.488326333463D-03 9.540468454361D-06 5.153732202530D+03
    1.224000000000D+05-4.097819328308D-08 3.002034850687D-01 2.346932888031D-07
    9.582873653838D-01 1.932812500000D+02 2.717554747692D-01-7.958188774637D-09
   -1.275053118643D-10 1.000000000000D+00 2.271000000000D+03 0.000000000000D+00
    2.000000000000D+00 0.000000000000D+00 5.122274160385D-09 1.100000000000D+02
    1.152300000000D+05
21 23  7 17 10  0  0.0 1.520505174994D-04-4.547473508865D-13 0.000000000000D+00
    7.500000000000D+01 8.153125000000D+01 4.601620418043D-09 1.704844749490D+00
    4.161149263382D-06 2.469086216297D-02-2.235174179077D-07 5.153603572845D+03
    1.224000000000D+05 2.942979335785D-07 1.288599167442D+00 1.601874828339D-07
    9.616092046889D-01 3.712500000000D+02-7.350085938410D-01-8.213199009788D-09
   -2.535819887406D-10 1.000000000000D+00 2.271000000000D+03 0.000000000000D+00
    2.000000000000D+00 0.000000000000D+00-1.024454832077D-08 7.500000000000D+01
    1.152300000000D+05
26 23  7 17 10  0  0.0 2.362001687288D-04-1.136868377216D-12 0.000000000000D+00
    1.000000000000D+01-3.937500000000D+00 5.297363436796D-09-2.718924640273D+00
   -3.781169652939D-07 7.972377701662D-03 8.182600140572D-06 5.153716039658D+03
    1.224000000000D+05-5.029141902924D-08-7.882596370122D-01-2.011656761169D-07
    9.333452587421D-01 2.101875000000D+02 4.633688944087D-01-8.081408431337D-09
   -4.703767375602D-10 1.000000000000D+00 2.271000000000D+03 0.000000000000D+00
    2.000000000000D+00 0.000000000000D+00 6.984919309616D-09 1.000000000000D+01
    1.152300000000D+05
